OBJECT_NAME,OBJECT_ID,EPOCH,MEAN_MOTION,ECCENTRICITY,INCLINATION,RA_OF_ASC_NODE,ARG_OF_PERICENTER,MEAN_ANOMALY,EPHEMERIS_TYPE,CLASSIFICATION_TYPE,NORAD_CAT_ID,ELEMENT_SET_NO,REV_AT_EPOCH,BSTAR,MEAN_MOTION_DOT,MEAN_MOTION_DDOT
2022-023F,2022-023F,2026-07-15T14:30:11.297088,15.17980335,.0133092,63.4447,176.8777,341.6027,18.0295,0,U,51951,999,24202,.24188E-3,.5974E-4,0
MERIDIAN 10,2022-030A,2026-07-14T21:13:15.112416,2.00609361,.67917588,62.6769,137.8064,272.8407,17.6018,0,U,52145,999,3158,0,.131E-5,0
OMNI-L1,2022-033A,2026-07-15T22:13:14.994336,14.82845941,.00053797,97.8391,275.5456,175.3257,184.8008,0,U,52157,999,23171,.11665718E-3,.892E-5,0
ENMAP,2022-033C,2026-07-15T22:18:26.396352,14.74940983,.00012941,97.9796,278.7698,80.0564,280.0791,0,U,52159,999,23089,.4082421E-4,.224E-5,0
ARCSAT-1,2022-033E,2026-07-15T21:49:59.135808,15.54292263,.00063215,97.2760,289.6233,95.2659,264.9317,0,U,52161,999,24016,.11044699E-3,.712E-4,0
GLOBAL-18,2022-034B,2026-07-15T22:38:16.820736,15.47241473,.00045088,52.9818,119.1026,27.7715,332.3531,0,U,52196,999,24141,.26722032E-3,.13416E-3,0
GAOFEN-3 03,2022-035A,2026-07-15T22:51:05.673600,14.42217988,.00017406,98.4060,205.1153,88.7240,271.4149,0,U,52200,999,22499,-.23949215E-4,-.122E-5,0
DAQI-1,2022-039A,2026-07-15T23:24:22.363776,14.57692639,.00040165,98.1486,135.2334,145.9762,214.1695,0,U,52257,999,22613,.19921149E-4,.46E-6,0
BRO-6,2022-047AE,2026-07-15T21:38:17.326752,15.52604508,.00027867,97.3393,288.5495,306.2898,53.8097,0,U,52422,999,23560,.41644327E-3,.2555E-3,0
JILIN-1 GAOFEN 3D27,2022-048B,2026-07-15T22:10:49.914912,15.83261741,.0005291,97.5733,313.6410,242.5391,117.5340,0,U,52444,999,23401,.60379123E-3,.13142E-2,0
JILIN-1 GAOFEN 3D28,2022-048C,2026-07-15T21:58:18.281568,15.88363578,.00050528,97.5664,313.9385,240.2978,119.7791,0,U,52445,999,23407,.63015377E-3,.176155E-2,0
VIGORIDE-3,2022-057AE,2026-07-15T21:51:26.637408,15.27553447,.00088239,97.6643,337.6571,32.5973,327.5809,0,U,52760,999,22954,.10943767E-3,.2872E-4,0
ION SCV-006,2022-057AF,2026-07-15T21:50:16.926432,15.45930912,.00166984,97.6134,346.9282,15.1633,345.0113,0,U,52761,999,23055,.14286982E-3,.689E-4,0
SHERPA-AC1,2022-057AH,2026-07-15T22:01:54.573600,15.36637499,.00071293,97.6720,347.3546,1.0334,359.0923,0,U,52763,999,23011,.11623952E-3,.4073E-4,0
OMNI-L2,2022-057AR,2026-07-15T18:16:44.506272,14.81438548,.00057142,97.4701,257.1987,218.3813,141.6995,0,U,52771,999,22462,.8386545E-4,.609E-5,0
STEP CUBE LAB-II,2022-065D,2026-07-15T22:09:16.832736,14.63343955,.00074108,98.2259,340.7416,299.8883,60.1582,0,U,52897,999,21570,.89781353E-4,.415E-5,0
RANDEV,2022-065E,2026-07-15T21:59:52.335744,14.63732305,.00067459,98.2245,341.0995,300.6700,59.3837,0,U,52898,999,21545,.84003486E-4,.389E-5,0
SNUGLITE-II,2022-065F,2026-07-15T22:25:24.720960,14.64394906,.00062147,98.2236,341.7198,297.8775,62.1797,0,U,52899,999,21520,.86996721E-4,.411E-5,0
MIMAN,2022-065G,2026-07-15T22:23:12.286176,14.61872121,.0006395,98.2296,339.2761,301.1529,58.9044,0,U,52900,999,21464,.55104008E-4,.228E-5,0
STARLINK-4362,2022-077A,2026-07-15T21:49:12.439200,15.05656348,.00012572,97.2856,14.3193,99.8954,260.2415,0,U,53043,999,22020,.24364181E-4,.295E-5,0
LARES-2,2022-080A,2026-07-11T06:32:52.952640,6.38965058,.00051703,70.1562,297.0691,331.4390,28.5953,0,U,53105,999,9320,0,-.16E-6,0
GREENCUBE (IO-117),2022-080E,2026-07-15T04:46:20.871552,6.42583355,.00090693,70.1411,288.5050,283.3508,76.6141,0,U,53109,999,9386,0,-.3E-7,0
STARLINK-4410,2022-084R,2026-07-15T22:00:01.999584,15.41805353,.00013717,97.6004,259.0317,96.6813,348.7211,0,U,53204,999,585,-.18757697E-4,-.883E-5,0
COSMOS 2558,2022-089A,2026-07-15T19:15:33.945408,15.81811771,.0004115,97.2246,302.1702,226.9307,133.1618,0,U,53323,999,22234,.52072E-3,.105576E-2,0
TECMS,2022-090A,2026-07-15T23:12:13.573728,15.21235786,.00054928,97.3125,264.2589,83.2212,276.9649,0,U,53346,999,21918,.85753984E-4,.1848E-4,0
DONGPO 02,2022-098J,2026-07-15T23:17:01.308192,15.81292615,.00044825,97.5554,330.8081,213.3086,146.7900,0,U,53452,999,21933,.52056606E-3,.103039E-2,0
DONGPO 01,2022-098K,2026-07-15T22:39:38.405664,15.78234876,.00029792,97.5625,331.2147,206.4315,153.6799,0,U,53453,999,21928,.48007572E-3,.82516E-3,0
STARLINK-4400,2022-099D,2026-07-15T21:19:18.752736,15.05657317,.00016037,97.2839,314.3809,127.5482,232.5892,0,U,53468,999,21526,.25248927E-4,.308E-5,0
