2022-023F               
1 51951U 22023F   26196.60429742  .00005974  00000+0  24188-3 0  9998
2 51951  63.4447 176.8777 0133092 341.6027  18.0295 15.17980335242022
MERIDIAN 10             
1 52145U 22030A   26195.88420269  .00000131  00000+0  00000+0 0  9999
2 52145  62.6769 137.8064 6791758 272.8407  17.6018  2.00609361 31584
OMNI-L1                 
1 52157U 22033A   26196.92586799  .00000892  00000+0  11666-3 0  9990
2 52157  97.8391 275.5456 0005379 175.3257 184.8008 14.82845941231716
ENMAP                   
1 52159U 22033C   26196.92947218  .00000224  00000+0  40824-4 0  9997
2 52159  97.9796 278.7698 0001294  80.0564 280.0791 14.74940983230895
ARCSAT-1                
1 52161U 22033E   26196.90971222  .00007120  00000+0  11045-3 0  9994
2 52161  97.2760 289.6233 0006321  95.2659 264.9317 15.54292263240163
GLOBAL-18               
1 52196U 22034B   26196.94325024  .00013416  00000+0  26722-3 0  9993
2 52196  52.9818 119.1026 0004508  27.7715 332.3531 15.47241473241414
GAOFEN-3 03             
1 52200U 22035A   26196.95214900 -.00000122  00000+0 -23949-4 0  9992
2 52200  98.4060 205.1153 0001740  88.7240 271.4149 14.42217988224996
DAQI-1                  
1 52257U 22039A   26196.97525884  .00000046  00000+0  19921-4 0  9994
2 52257  98.1486 135.2334 0004016 145.9762 214.1695 14.57692639226139
BRO-6                   
1 52422U 22047AE  26196.90158943  .00025550  00000+0  41644-3 0  9991
2 52422  97.3393 288.5495 0002786 306.2898  53.8097 15.52604508235605
JILIN-1 GAOFEN 3D27     
1 52444U 22048B   26196.92418883  .00131420  00000+0  60379-3 0  9990
2 52444  97.5733 313.6410 0005291 242.5391 117.5340 15.83261741234015
JILIN-1 GAOFEN 3D28     
1 52445U 22048C   26196.91548937  .00176155  00000+0  63015-3 0  9998
2 52445  97.5664 313.9385 0005052 240.2978 119.7791 15.88363578234070
VIGORIDE-3              
1 52760U 22057AE  26196.91072497  .00002872  00000+0  10944-3 0  9998
2 52760  97.6643 337.6571 0008823  32.5973 327.5809 15.27553447229548
ION SCV-006             
1 52761U 22057AF  26196.90991813  .00006890  00000+0  14287-3 0  9998
2 52761  97.6134 346.9282 0016698  15.1633 345.0113 15.45930912230557
SHERPA-AC1              
1 52763U 22057AH  26196.91799275  .00004073  00000+0  11624-3 0  9992
2 52763  97.6720 347.3546 0007129   1.0334 359.0923 15.36637499230119
OMNI-L2                 
1 52771U 22057AR  26196.76162623  .00000609  00000+0  83865-4 0  9993
2 52771  97.4701 257.1987 0005714 218.3813 141.6995 14.81438548224621
STEP CUBE LAB-II        
1 52897U 22065D   26196.92311149  .00000415  00000+0  89781-4 0  9996
2 52897  98.2259 340.7416 0007410 299.8883  60.1582 14.63343955215702
RANDEV                  
1 52898U 22065E   26196.91657796  .00000389  00000+0  84003-4 0  9999
2 52898  98.2245 341.0995 0006745 300.6700  59.3837 14.63732305215459
SNUGLITE-II             
1 52899U 22065F   26196.93431390  .00000411  00000+0  86997-4 0  9992
2 52899  98.2236 341.7198 0006214 297.8775  62.1797 14.64394906215204
MIMAN                   
1 52900U 22065G   26196.93278109  .00000228  00000+0  55104-4 0  9994
2 52900  98.2296 339.2761 0006395 301.1529  58.9044 14.61872121214649
STARLINK-4362           
1 53043U 22077A   26196.90917175  .00000295  00000+0  24364-4 0  9994
2 53043  97.2856  14.3193 0001257  99.8954 260.2415 15.05656348220203
LARES-2                 
1 53105U 22080A   26192.27283510 -.00000016  00000+0  00000+0 0  9990
2 53105  70.1562 297.0691 0005170 331.4390  28.5953  6.38965058 93203
GREENCUBE (IO-117)      
1 53109U 22080E   26196.19885268 -.00000003  00000+0  00000+0 0  9993
2 53109  70.1411 288.5050 0009069 283.3508  76.6141  6.42583355 93867
STARLINK-4410           
1 53204U 22084R   26196.91668981 -.00000883  00000+0 -18758-4 0  9995
2 53204  97.6004 259.0317 0001371  96.6813 348.7211 15.41805353  5853
COSMOS 2558             
1 53323U 22089A   26196.80247622  .00105576  00000+0  52072-3 0  9994
2 53323  97.2246 302.1702 0004115 226.9307 133.1618 15.81811771222349
TECMS                   
1 53346U 22090A   26196.96682377  .00001848  00000+0  85754-4 0  9999
2 53346  97.3125 264.2589 0005492  83.2212 276.9649 15.21235786219188
DONGPO 02               
1 53452U 22098J   26196.97015403  .00103039  00000+0  52057-3 0  9990
2 53452  97.5554 330.8081 0004482 213.3086 146.7900 15.81292615219335
DONGPO 01               
1 53453U 22098K   26196.94419451  .00082516  00000+0  48008-3 0  9996
2 53453  97.5625 331.2147 0002979 206.4315 153.6799 15.78234876219288
STARLINK-4400           
1 53468U 22099D   26196.88841149  .00000308  00000+0  25249-4 0  9991
2 53468  97.2839 314.3809 0001603 127.5482 232.5892 15.05657317215260
